#dP2024  5 22  6  0  0.00000000      96 __u+U IGS20 EXT  IAC
## 2315 280800.00000000   900.00000000 60452 0.2500000000000
+   53   G02G03G04G05G06G07G08G09G10G11G12G13G14G15G16G17G18
+        G19G20G21G22G23G24G25G26G27G28G29G30G31G32R01R02R03
+        R04R05R07R08R09R11R12R13R14R15R16R17R18R19R20R21R22
+        R24R25  0  0  0  0  0  0  0  0  0  0  0  0  0  0  0
+          0  0  0  0  0  0  0  0  0  0  0  0  0  0  0  0  0
++         8  7  7  8  9  8  8  8  8  8  9  9  8  7  7  7  7
++         9  7  9  8  8  8 10  8  8  8  8  8  7  9  9  9 10
++         8  8  8 11  8  8  8  8  8  7  7  8  8  9  9  8  9
++         8  8  0  0  0  0  0  0  0  0  0  0  0  0  0  0  0
++         0  0  0  0  0  0  0  0  0  0  0  0  0  0  0  0  0
%c M  cc GPS ccc cccc cccc cccc cccc ccccc ccccc ccccc ccccc
%c cc cc ccc ccc cccc cccc cccc cccc ccccc ccccc ccccc ccccc
%f  0.0000000  0.000000000  0.00000000000  0.000000000000000
%f  0.0000000  0.000000000  0.00000000000  0.000000000000000
%i    0    0    0    0      0      0      0      0         0
%i    0    0    0    0      0      0      0      0         0
/* IAC                                ULTRA-RAPID PREDICTION
/* S/V CLOCKS ARE ALIGNED TO GNSS TIME                      
/* G:C1WC2W R:C1PC2P E:C1XC5X C:C2IC6I J:C1CC2S             
/* PCV:IGS20_2290 OL/AL:FES2004  NONE     YN ORB:CoN CLK:CoN
*  2024 05 22  6 30  0.00000000
PG02 -20050.705178 -13844.459897 -10433.273294   -431.828596
PG03 -12212.143909 -18498.350735  14571.743333    375.749887
PG04 -13548.982961  -8419.825224  21275.425558    366.465624
PG05   5594.986621  25895.411748  -1151.569685   -173.577589
PG06 -14442.225266   8593.721736  20656.301454    260.388381
PG07 -25279.605924  -5142.682575  -6750.942332   -134.078778
PG08  -4475.157169 -15674.987640 -21001.422389    191.112568
PG09 -21400.668819   3598.140189  15268.859891    205.475520
PG10  11215.083904 -13688.818063 -19489.922515    -27.471872
PG11   -748.159461  15888.534534  21301.096387   -668.025783
PG12  10406.066643  20568.623115  12957.352652   -507.475653
PG13  -5650.747799  18011.773686 -18793.514732    652.339897
PG14 -13783.912422   9621.984681 -20484.946954    406.725555
PG15   6561.907418  15557.981241 -20964.843278    161.690159
PG16   -259.707247 -26252.009889   1463.147862   -285.198736
PG17 -22936.860140  13116.150289  -3035.764697    704.069477
PG18  24884.474275   4492.114309  -8435.273588   -614.236705
PG19 -19704.331002  16578.692573   5419.597191    485.499198
PG20    533.999384  24714.102656   9976.601295    375.700963
PG21 -16248.895813 -15535.846795 -14458.720986    120.174980
PG22 -10472.031729  18055.855596 -16174.044680    -16.980224
PG23  14881.415264   -459.721185 -21981.135232    231.476848
PG24  18047.447769  15343.662739 -12835.583625   -471.768684
PG25  15003.184221  11755.622578  18263.387765    496.138138
PG26   6233.671924 -21214.601756  14293.963245    149.200675
PG27   7242.989269 -19915.492476 -16031.312631    -25.103586
PG28  16578.227391  -8074.283767  19103.641820   -254.582323
PG29  20358.599913    528.226311  17057.079695   -597.484792
PG30 -20911.083154   4075.412419 -15876.492885   -386.582808
PG31   6398.512276 -13859.088070  21523.956835   -227.741124
PG32  21252.851831 -15676.147811  -1276.535320   -617.950452
PR01   1925.620843  15925.502496 -19821.818973     86.097418
PR02  11973.446775    425.367250 -22461.817589    -23.022991
PR03  15938.274689 -15610.920389 -12265.743853    100.626577
PR04  11270.751398 -22469.278879   4337.341694    237.526423
PR05    521.500106 -17407.047448  18645.291384    131.859209
PR07 -15974.073684  16169.440847  11668.694380     82.916371
PR08 -11019.125265  22581.788207  -4419.747353     -4.008710
PR09 -16352.834046 -12667.881558 -14963.323129    187.935646
PR11   -262.238970  17287.773166 -18734.087751     23.912535
PR12  11855.622597  22519.108848  -1791.769490     40.413971
PR13  16020.065832  14962.282654  13034.498810    -47.599851
PR14  10688.428712  -3711.900605  22874.704468     26.501548
PR15   -643.428188 -18359.144649  17723.669460     79.577531
PR16 -11839.564087 -22520.340580   2103.380058     25.799131
PR17  22764.291295  -4470.419711 -10648.848565     88.963790
PR18   9344.936059  -9546.771861 -21710.221581    143.255080
PR19  -6712.051815 -10393.091888 -22312.670482   -277.518381
PR20 -23786.898606  -4979.155276  -7816.754676   -113.221459
PR21 -22850.141372   4166.561475  10508.087510   -102.841317
PR22  -8454.198832   9936.058642  21943.211821    110.202891
PR24  24165.555411   3860.403416   7233.736484    -56.790795
PR25 -22760.328752   3832.448370  10840.073951    -37.566402
*  2024 05 22  6 45  0.00000000
PG02 -18661.397092 -13657.916479 -12839.891054   -431.822453
PG03 -12323.855334 -20052.187876  12275.823392    375.767219
PG04 -11626.687486  -9946.437208  21737.259704    366.473140
PG05   5357.524116  25893.677770   1730.946523   -173.578724
PG06 -16534.254172   7709.193091  19404.573809    260.370443
PG07 -25819.526369  -5609.377691  -4032.904888   -134.086066
PG08  -2655.475835 -17151.614161 -20095.134278    191.130457
PG09 -20106.555097   2240.490946  17155.813767    205.488296
PG10  11697.264648 -11394.977265 -20663.947009    -27.478094
PG11  -3022.574964  14958.144837  21764.237134   -668.033902
PG12  10331.227113  21966.063454  10557.854393   -507.478627
PG13  -7446.962645  18954.192623 -17129.384627    652.342436
PG14 -14207.584008   7259.449705 -21175.203616    406.733879
PG15   4982.003175  17179.944069 -20076.494063    161.693872
PG16     55.402177 -25904.379653   4323.052078   -285.189691
PG17 -22621.055030  12612.205682  -5838.504759    704.066017
PG18  25564.577718   4964.201065  -5717.209516   -614.241741
PG19 -20251.300553  16627.406056   2575.476274    485.504000
PG20   -105.010607  23595.696453  12403.217048    375.699721
PG21 -14474.047778 -15191.250403 -16419.394023    120.172906
PG22 -10779.370336  16059.885293 -17911.425589    -16.984922
PG23  15347.160106   1987.304266 -21589.910580    231.485282
PG24  16522.757042  15164.408825 -14957.251249   -471.771634
PG25  15225.192140  13800.864819  16628.251658    496.138691
PG26   6925.356356 -19540.640729  16244.037121    149.195470
PG27   8660.728842 -20846.529679 -13935.080044    -25.105112
PG28  18526.822572  -7277.854827  17572.731594   -254.597182
PG29  18758.289928   1815.222041  18707.832735   -597.483424
PG30 -22447.601809   3265.020590 -13881.853110   -386.577442
PG31   8717.758681 -12932.702991  21322.225532   -227.741055
PG32  21171.064836 -15255.527099  -4123.434357   -617.949963
PR01    933.195986  18040.830483 -17996.038157     86.098362
PR02  10570.251792   2869.699785 -22984.593390    -23.023110
PR03  15016.764977 -14194.214146 -14867.905185    100.627282
PR04  11280.150733 -22846.680262   1132.830657    237.527987
PR05   1489.843235 -19353.596626  16553.844756    131.859729
PR07 -15084.026675  14838.174944  14325.406300     82.917166
PR08 -11049.051655  22972.328054  -1226.977104     -4.009141
PR09 -17340.787991 -14039.977296 -12420.617369    187.937563
PR11  -1477.868787  15194.934644 -20416.893863     23.911409
PR12  11749.104700  22091.585511  -4961.885610     40.414341
PR13  16883.426897  16119.848077  10274.945628    -47.600219
PR14  12182.061633  -1357.982002  22381.378653     26.501707
PR15    492.241229 -16361.233005  19588.651681     79.577182
PR16 -11732.407627 -22053.201068   5274.908445     25.799397
PR17  23892.909242  -4664.575167  -7683.488722     88.966808
PR18  11946.414593  -9639.154885 -20347.646635    143.256773
PR19  -3913.957644 -10267.880853 -23025.898255   -277.519628
PR20 -22644.293979  -4740.269493 -10788.865287   -113.221599
PR21 -23964.638682   4358.217901   7524.407337   -102.844148
PR22 -11083.368410   9932.774204  20741.253207    110.200286
PR24  23088.955859   3732.784493  10207.990263    -56.792159
PR25 -23920.527441   3937.219924   7905.877833    -37.568828
EOF
